start=new Date('2021-11-02T00:00:00.000Z').valueOf();
sats=[{"APOAPSIS":"548.422","GP_ID":"188694976","EPHEMERIS_TYPE":"0","MEAN_ELEMENT_THEORY":"SGP4","DECAY_DATE":null,"ARG_OF_PERICENTER":"81.5977","COUNTRY_CODE":"US","MEAN_MOTION_DDOT":"0.0000000000000","ELEMENT_SET_NO":"999","ECCENTRICITY":"0.00017120","MEAN_MOTION_DOT":"0.00000643","BSTAR":"0.00006205100000","RCS_SIZE":"LARGE","OBJECT_NAME":"STARLINK-1797","OBJECT_TYPE":"PAYLOAD","FILE":"3196819","RA_OF_ASC_NODE":"173.9281","SITE":"AFETR","CLASSIFICATION_TYPE":"U","INCLINATION":"53.0532","NORAD_CAT_ID":"46698","MEAN_MOTION":"15.06392501","LAUNCH_DATE":"2020-10-18","MEAN_ANOMALY":"278.5206","OBJECT_ID":"2020-073AE","REF_FRAME":"TEME","PERIAPSIS":"546.051","TLE_LINE1":"1 46698U 20073AE  21305.91075949  .00000643  00000-0  62051-4 0  9991","SEMIMAJOR_AXIS":"6925.372","CENTER_NAME":"EARTH","TIME_SYSTEM":"UTC","PERIOD":"95.593","REV_AT_EPOCH":"5766","TLE_LINE2":"2 46698  53.0532 173.9281 0001712  81.5977 278.5206 15.06392501 57668","EPOCH":"2021-11-01T21:51:29.619936"},{"MEAN_ELEMENT_THEORY":"SGP4","DECAY_DATE":null,"ARG_OF_PERICENTER":"77.8933","COUNTRY_CODE":"US","APOAPSIS":"548.380","GP_ID":"188694225","EPHEMERIS_TYPE":"0","ECCENTRICITY":"0.00017280","MEAN_MOTION_DOT":"0.00002112","BSTAR":"0.00016063000000","RCS_SIZE":"LARGE","MEAN_MOTION_DDOT":"0.0000000000000","ELEMENT_SET_NO":"999","SITE":"AFETR","CLASSIFICATION_TYPE":"U","INCLINATION":"53.0543","NORAD_CAT_ID":"46699","MEAN_MOTION":"15.06409809","OBJECT_NAME":"STARLINK-1799","OBJECT_TYPE":"PAYLOAD","FILE":"3196819","RA_OF_ASC_NODE":"173.9104","REV_AT_EPOCH":"5766","PERIOD":"95.592","TLE_LINE2":"2 46699  53.0543 173.9104 0001728  77.8933 282.2250 15.06409809 57663","EPOCH":"2021-11-01T21:56:47.172768","LAUNCH_DATE":"2020-10-18","OBJECT_ID":"2020-073AF","MEAN_ANOMALY":"282.2250","PERIAPSIS":"545.987","REF_FRAME":"TEME","TLE_LINE1":"1 46699U 20073AF  21305.91443487  .00002112  00000-0  16063-3 0  9992","TIME_SYSTEM":"UTC","SEMIMAJOR_AXIS":"6925.318","CENTER_NAME":"EARTH"},{"MEAN_MOTION_DDOT":"0.0000000000000","ELEMENT_SET_NO":"999","MEAN_MOTION_DOT":"0.00000822","ECCENTRICITY":"0.00016690","RCS_SIZE":"LARGE","BSTAR":"0.00007409900000","GP_ID":"188694475","APOAPSIS":"548.381","EPHEMERIS_TYPE":"0","ARG_OF_PERICENTER":"67.7678","DECAY_DATE":null,"MEAN_ELEMENT_THEORY":"SGP4","COUNTRY_CODE":"US","LAUNCH_DATE":"2020-10-18","CENTER_NAME":"EARTH","TLE_LINE1":"1 46700U 20073AG  21305.65319680  .00000822  00000-0  74099-4 0  9993","SEMIMAJOR_AXIS":"6925.361","TIME_SYSTEM":"UTC","REF_FRAME":"TEME","PERIAPSIS":"546.070","MEAN_ANOMALY":"292.3488","OBJECT_ID":"2020-073AG","TLE_LINE2":"2 46700  53.0524 190.0851 0001669  67.7678 292.3488 15.06396085 57411","REV_AT_EPOCH":"5741","PERIOD":"95.592","EPOCH":"2021-11-01T15:40:36.203520","FILE":"3196819","OBJECT_TYPE":"PAYLOAD","OBJECT_NAME":"STARLINK-1800","RA_OF_ASC_NODE":"190.0851","INCLINATION":"53.0524","CLASSIFICATION_TYPE":"U","SITE":"AFETR","MEAN_MOTION":"15.06396085","NORAD_CAT_ID":"46700"},{"RCS_SIZE":"LARGE","BSTAR":"-0.00009290200000","ECCENTRICITY":"0.00018980","MEAN_MOTION_DOT":"-0.00001665","ELEMENT_SET_NO":"999","MEAN_MOTION_DDOT":"0.0000000000000","COUNTRY_CODE":"US","ARG_OF_PERICENTER":"77.3917","MEAN_ELEMENT_THEORY":"SGP4","DECAY_DATE":null,"EPHEMERIS_TYPE":"0","APOAPSIS":"548.531","GP_ID":"188694726","EPOCH":"2021-11-01T18:03:14.755968","REV_AT_EPOCH":"5764","PERIOD":"95.592","TLE_LINE2":"2 46701  53.0528 174.6292 0001898  77.3917 282.7284 15.06399146 57643","REF_FRAME":"TEME","PERIAPSIS":"545.902","MEAN_ANOMALY":"282.7284","OBJECT_ID":"2020-073AH","SEMIMAJOR_AXIS":"6925.351","TLE_LINE1":"1 46701U 20073AH  21305.75225412 -.00001665  00000-0 -92902-4 0  9995","TIME_SYSTEM":"UTC","CENTER_NAME":"EARTH","LAUNCH_DATE":"2020-10-18","NORAD_CAT_ID":"46701","MEAN_MOTION":"15.06399146","CLASSIFICATION_TYPE":"U","SITE":"AFETR","INCLINATION":"53.0528","RA_OF_ASC_NODE":"174.6292","OBJECT_TYPE":"PAYLOAD","OBJECT_NAME":"STARLINK-1801","FILE":"3196819"},{"NORAD_CAT_ID":"46702","MEAN_MOTION":"15.06394223","CLASSIFICATION_TYPE":"U","SITE":"AFETR","INCLINATION":"53.0558","RA_OF_ASC_NODE":"156.6718","OBJECT_TYPE":"PAYLOAD","OBJECT_NAME":"STARLINK-1802","FILE":"3196301","EPOCH":"2021-11-01T07:13:03.983520","REV_AT_EPOCH":"5785","PERIOD":"95.593","TLE_LINE2":"2 46702  53.0558 156.6718 0001533 136.7304 223.3806 15.06394223 57851","REF_FRAME":"TEME","PERIAPSIS":"546.170","OBJECT_ID":"2020-073AJ","MEAN_ANOMALY":"223.3806","TLE_LINE1":"1 46702U 20073AJ  21305.30074055  .00000473  00000-0  50678-4 0  9990","SEMIMAJOR_AXIS":"6925.366","TIME_SYSTEM":"UTC","CENTER_NAME":"EARTH","LAUNCH_DATE":"2020-10-18","COUNTRY_CODE":"US","ARG_OF_PERICENTER":"136.7304","MEAN_ELEMENT_THEORY":"SGP4","DECAY_DATE":null,"EPHEMERIS_TYPE":"0","APOAPSIS":"548.293","GP_ID":"188660691","RCS_SIZE":"LARGE","BSTAR":"0.00005067800000","ECCENTRICITY":"0.00015330","MEAN_MOTION_DOT":"0.00000473","ELEMENT_SET_NO":"999","MEAN_MOTION_DDOT":"0.0000000000000"},{"MEAN_MOTION_DDOT":"0.0000000000000","ELEMENT_SET_NO":"999","MEAN_MOTION_DOT":"0.00001609","ECCENTRICITY":"0.00015720","BSTAR":"0.00012691000000","RCS_SIZE":"LARGE","GP_ID":"188693725","APOAPSIS":"548.305","EPHEMERIS_TYPE":"0","MEAN_ELEMENT_THEORY":"SGP4","DECAY_DATE":null,"ARG_OF_PERICENTER":"77.2971","COUNTRY_CODE":"US","LAUNCH_DATE":"2020-10-18","TLE_LINE1":"1 46703U 20073AK  21305.86283417  .00001609  00000-0  12691-3 0  9990","SEMIMAJOR_AXIS":"6925.352","TIME_SYSTEM":"UTC","CENTER_NAME":"EARTH","MEAN_ANOMALY":"282.8194","OBJECT_ID":"2020-073AK","REF_FRAME":"TEME","PERIAPSIS":"546.128","TLE_LINE2":"2 46703  53.0532 174.1452 0001572  77.2971 282.8194 15.06398975 57652","REV_AT_EPOCH":"5765","PERIOD":"95.592","EPOCH":"2021-11-01T20:42:28.872288","FILE":"3196819","OBJECT_NAME":"STARLINK-1803","OBJECT_TYPE":"PAYLOAD","RA_OF_ASC_NODE":"174.1452","INCLINATION":"53.0532","SITE":"AFETR","CLASSIFICATION_TYPE":"U","MEAN_MOTION":"15.06398975","NORAD_CAT_ID":"46703"},{"SITE":"AFETR","CLASSIFICATION_TYPE":"U","INCLINATION":"53.0550","NORAD_CAT_ID":"46704","MEAN_MOTION":"15.06398085","OBJECT_NAME":"STARLINK-1804","OBJECT_TYPE":"PAYLOAD","FILE":"3196819","RA_OF_ASC_NODE":"154.2179","REV_AT_EPOCH":"5793","PERIOD":"95.592","TLE_LINE2":"2 46704  53.0550 154.2179 0001811 172.1259 187.9759 15.06398085 57933","EPOCH":"2021-11-01T20:13:17.860512","LAUNCH_DATE":"2020-10-18","MEAN_ANOMALY":"187.9759","OBJECT_ID":"2020-073AL","REF_FRAME":"TEME","PERIAPSIS":"545.965","SEMIMAJOR_AXIS":"6925.354","TLE_LINE1":"1 46704U 20073AL  21305.84256783  .00000116  00000-0  26721-4 0  9997","CENTER_NAME":"EARTH","TIME_SYSTEM":"UTC","DECAY_DATE":null,"MEAN_ELEMENT_THEORY":"SGP4","ARG_OF_PERICENTER":"172.1259","COUNTRY_CODE":"US","APOAPSIS":"548.474","GP_ID":"188693975","EPHEMERIS_TYPE":"0","ECCENTRICITY":"0.00018110","MEAN_MOTION_DOT":"0.00000116","BSTAR":"0.00002672100000","RCS_SIZE":"LARGE","MEAN_MOTION_DDOT":"0.0000000000000","ELEMENT_SET_NO":"999"},{"COUNTRY_CODE":"US","ARG_OF_PERICENTER":"71.8408","MEAN_ELEMENT_THEORY":"SGP4","DECAY_DATE":null,"EPHEMERIS_TYPE":"0","APOAPSIS":"548.374","GP_ID":"188659940","RCS_SIZE":"LARGE","BSTAR":"0.00006885500000","ECCENTRICITY":"0.00016800","MEAN_MOTION_DOT":"0.00000744","ELEMENT_SET_NO":"999","MEAN_MOTION_DDOT":"0.0000000000000","NORAD_CAT_ID":"46705","MEAN_MOTION":"15.06401001","CLASSIFICATION_TYPE":"U","SITE":"AFETR","INCLINATION":"53.0532","RA_OF_ASC_NODE":"191.2492","OBJECT_TYPE":"PAYLOAD","OBJECT_NAME":"STARLINK-1805","FILE":"3196301","EPOCH":"2021-11-01T09:23:45.022848","REV_AT_EPOCH":"5737","PERIOD":"95.592","TLE_LINE2":"2 46705  53.0532 191.2492 0001680  71.8408 288.2764 15.06401001 57370","REF_FRAME":"TEME","PERIAPSIS":"546.047","OBJECT_ID":"2020-073AM","MEAN_ANOMALY":"288.2764","TLE_LINE1":"1 46705U 20073AM  21305.39149332  .00000744  00000-0  68855-4 0  9990","TIME_SYSTEM":"UTC","SEMIMAJOR_AXIS":"6925.345","CENTER_NAME":"EARTH","LAUNCH_DATE":"2020-10-18"},{"EPOCH":"2021-11-01T21:30:15.151680","TLE_LINE2":"2 46706  53.0527 173.9853 0001637  77.3833 282.7339 15.06401927 57664","REV_AT_EPOCH":"5766","PERIOD":"95.592","CENTER_NAME":"EARTH","TLE_LINE1":"1 46706U 20073AN  21305.89600870  .00002096  00000-0  15959-3 0  9993","SEMIMAJOR_AXIS":"6925.343","TIME_SYSTEM":"UTC","OBJECT_ID":"2020-073AN","MEAN_ANOMALY":"282.7339","PERIAPSIS":"546.074","REF_FRAME":"TEME","LAUNCH_DATE":"2020-10-18","MEAN_MOTION":"15.06401927","NORAD_CAT_ID":"46706","INCLINATION":"53.0527","SITE":"AFETR","CLASSIFICATION_TYPE":"U","RA_OF_ASC_NODE":"173.9853","FILE":"3196819","OBJECT_NAME":"STARLINK-1807","OBJECT_TYPE":"PAYLOAD","BSTAR":"0.00015959000000","RCS_SIZE":"LARGE","MEAN_MOTION_DOT":"0.00002096","ECCENTRICITY":"0.00016370","ELEMENT_SET_NO":"999","MEAN_MOTION_DDOT":"0.0000000000000","COUNTRY_CODE":"US","MEAN_ELEMENT_THEORY":"SGP4","DECAY_DATE":null,"ARG_OF_PERICENTER":"77.3833","EPHEMERIS_TYPE":"0","GP_ID":"188694977","APOAPSIS":"548.341"},{"INCLINATION":"53.0526","CLASSIFICATION_TYPE":"U","SITE":"AFETR","MEAN_MOTION":"15.06404425","NORAD_CAT_ID":"46707","FILE":"3196819","OBJECT_TYPE":"PAYLOAD","OBJECT_NAME":"STARLINK-1808","RA_OF_ASC_NODE":"154.0359","TLE_LINE2":"2 46707  53.0526 154.0359 0002429 187.3240 172.7714 15.06404425 57941","PERIOD":"95.592","REV_AT_EPOCH":"5794","EPOCH":"2021-11-01T21:16:58.649088","LAUNCH_DATE":"2020-10-18","SEMIMAJOR_AXIS":"6925.335","TLE_LINE1":"1 46707U 20073AP  21305.88678992  .00000634  00000-0  61446-4 0  9992","TIME_SYSTEM":"UTC","CENTER_NAME":"EARTH","REF_FRAME":"TEME","PERIAPSIS":"545.518","MEAN_ANOMALY":"172.7714","OBJECT_ID":"2020-073AP","ARG_OF_PERICENTER":"187.3240","DECAY_DATE":null,"MEAN_ELEMENT_THEORY":"SGP4","COUNTRY_CODE":"US","GP_ID":"188694226","APOAPSIS":"548.882","EPHEMERIS_TYPE":"0","MEAN_MOTION_DOT":"0.00000634","ECCENTRICITY":"0.00024290","RCS_SIZE":"LARGE","BSTAR":"0.00006144600000","MEAN_MOTION_DDOT":"0.0000000000000","ELEMENT_SET_NO":"999"}];
